#aV2015 10 15  0  0  0.00000000     288 DD+AD WGS84 FIT  NGA
## 1866 345600.00000000   300.00000000 57310 0.0000000000000
+   31     1  2  3  4  5  6  7  8  9 11 12 13 14 15 16 17 18
+         19 20 21 22 23 24 25 26 27 28 29 30 31 32  0  0  0
+          0  0  0  0  0  0  0  0  0  0  0  0  0  0  0  0  0
+          0  0  0  0  0  0  0  0  0  0  0  0  0  0  0  0  0
+          0  0  0  0  0  0  0  0  0  0  0  0  0  0  0  0  0
++         2  2  2  2  2  2  2  2  2  2  2  2  2  2  2  2  2
++         2  2  2  2  2  2  2  2  2  2  2  2  2  2  0  0  0
++         0  0  0  0  0  0  0  0  0  0  0  0  0  0  0  0  0
++         0  0  0  0  0  0  0  0  0  0  0  0  0  0  0  0  0
++         0  0  0  0  0  0  0  0  0  0  0  0  0  0  0  0  0
%c cc cc ccc ccc cccc cccc cccc cccc ccccc ccccc ccccc ccccc
%c cc cc ccc ccc cccc cccc cccc cccc ccccc ccccc ccccc ccccc
%f  0.0000000  0.000000000  0.00000000000  0.000000000000000
%f  0.0000000  0.000000000  0.00000000000  0.000000000000000
%i    0    0    0    0      0      0      0      0         0
%i    0    0    0    0      0      0      0      0         0
/*      NGA, ST. LOUIS,MO.                                  
/*   EPHEMERIS COMPUTED FROM 2 DAYS OF DATA                 
/*   EPOCHA v2.4 SMOOTHER                                   
/*   G1762 IERS2010 SATAF SATAPC                            
*  2015 10 15 10 15  0.00000000
P  1  12919.713606 -22510.291960  -5178.668529      2.415644                    
V  1   6248.606617  -3403.382770  31010.700152      0.007405                    
P  2 -19646.863940   9102.081424 -14697.296118    592.783142                    
V  2   9018.195623 -17606.880537 -22805.662732      0.012907                    
P  3   9149.343030 -13576.076503 -20911.723153     19.990003                    
V  3  26240.962825   4229.175613   8711.166236     -0.014210                    
P  4  17568.640435 -19316.232680   3685.023189    -32.600966                    
V  4    -99.198053   6332.681629  30990.588336     -0.049590                    
P  5 -25162.394220   2908.060886   8251.458987   -184.911807                    
V  5 -10101.171593  -4130.357123 -28933.467088      0.039359                    
P  6 -15853.219111  -3381.625299 -21039.462319     77.060650                    
V  6  15627.182668 -21671.996272  -8301.163635      0.070185                    
P  7    463.150916 -19835.943559  17588.175411    482.830325                    
V  7  15291.193945 -16209.322640 -19198.531141     -0.008169                    
P  8   9087.581115 -14758.741245  20173.558621     -8.791256                    
V  8  10865.346111  23108.005972  12025.658235     -0.013066                    
P  9  -7463.224102 -25152.242468  -4104.022270     -2.224696                    
V  9   4705.210802   3667.048455 -31098.833986      0.037288                    
P 11  10125.208939 -24224.724818   3150.963447   -610.290422                    
V 11   3355.678195   5959.350759  29901.747829     -0.022618                    
P 12 -12031.895248  11605.004866 -20688.201177    336.988083                    
V 12 -25457.009777  -5398.906292  12040.456252      0.032646                    
P 13 -14192.470798   4496.450282  21864.215903   -156.853319                    
V 13  -7782.900644 -26939.619880    383.088329     -0.028828                    
P 14  14311.213529  19520.812667 -10853.727123     28.039597                    
V 14   2245.033003  14107.275028  27539.979024     -0.023669                    
P 15  -8169.218624  16085.824367  19287.213238   -276.934739                    
V 15 -12325.014131 -21718.853882  13160.280733     -0.020161                    
P 16  25424.496494   -392.217000   8225.883986    -76.322124                    
V 16   9935.559812   3473.700043 -29886.681002      0.037920                    
P 17 -14885.109952 -18986.239868 -11038.086809   -191.039626                    
V 17  -3034.962033 -14205.957824  27553.546987     -0.012182                    
P 18  11371.242901  15530.477540  18920.008396    443.166215                    
V 18 -23057.815798   -830.224384  14663.460639      0.036979                    
P 19   -177.195832 -24217.214245  10200.618115   -521.544409                    
V 19   6417.403369  12037.264292  28501.754424     -0.004859                    
P 20 -12496.732275  13594.859414  18960.647157    363.272504                    
V 20 -24379.461217  -3028.323828 -13705.985788      0.029546                    
P 21   4202.031699  18379.594208  19303.542004   -486.836254                    
V 21 -15106.623309  17726.661135 -14444.956230     -0.026169                    
P 22  22792.772407   9917.729019   9837.227254    401.063839                    
V 22 -12460.929603   2041.893872  27300.664050      0.036070                    
P 23   2968.712892 -21300.218400 -15131.228931   -138.936581                    
V 23   9955.091848  17225.648560 -22480.976190     -0.021321                    
P 24 -14362.584571  22129.105251  -2207.950688     -6.331034                    
V 24  -4254.356591    317.483054  31491.181563     -0.005928                    
P 25   2629.731526  15127.015942 -21790.860293    -52.758395                    
V 25 -27159.937450  -3279.297349  -5418.519856     -0.054683                    
P 26  26045.472827   4787.581109  -2109.672896    -84.943655                    
V 26  -3009.441223   2440.844127 -31599.979049     -0.132736                    
P 27  15223.437711  -2148.645769  21644.426339     27.685738                    
V 27  10345.490450  25486.881969  -4620.530032      0.030707                    
P 28 -19566.880193 -12891.718732  13208.817880    474.545509                    
V 28  15615.240348   1886.685140  26152.184893      0.025301                    
P 29   4321.121782  25414.255730  -6460.991805    639.631117                    
V 29  -4845.439163  -6986.429762 -30623.272071      0.019572                    
P 30  -9079.186350 -12700.915152  21480.175228     41.387622                    
V 30  18453.983373 -20131.087496  -4183.683509      0.061467                    
P 31  16320.491462   2379.844693 -20763.681168    299.141492                    
V 31 -16347.912021  20923.517312 -10053.163353     -0.014281                    
P 32  20111.707897  -7117.958672 -15523.982073    -13.727755                    
V 32  18893.008238   6679.624321  22024.948368      0.114984                    
EOF
